NORAD_CAT_ID,OBJECT_NAME,OBJECT_TYPE,EPOCH,MEAN_MOTION,ECCENTRICITY,INCLINATION,RA_OF_ASC_NODE,ARG_OF_PERICENTER,MEAN_ANOMALY,BSTAR,MEAN_MOTION_DOT,MEAN_MOTION_DDOT,TLE_LINE0,TLE_LINE1,TLE_LINE2,SEMIMAJOR_AXIS,PERIOD,APOGEE,PERIGEE,DECAYED
53164.0,STARLINK-4116,PAYLOAD,2023-08-31 08:50:11,15.08837046,0.0001298,53.2178,340.0921,96.2652,263.8488,4.0715e-05,3.6e-06,0.0,0 STARLINK-4116,1 53164U 22083AJ  23243.36819198  .00000360  00000-0  40715-4 0  9993,2 53164  53.2178 340.0921 0001298  96.2652 263.8488 15.08837046 62904,6917.889,95.438,540.652,538.856,0.0
53164.0,STARLINK-4116,PAYLOAD,2023-09-01 13:27:07,15.08842997,0.0001169,53.2179,334.7405,96.79,263.3225,6.7334e-05,7.84e-06,0.0,0 STARLINK-4116,1 53164U 22083AJ  23244.56050868  .00000784  00000-0  67334-4 0  9993,2 53164  53.2179 334.7405 0001169  96.7900 263.3225 15.08842997 62455,6917.871,95.437,540.545,538.928,0.0
53164.0,STARLINK-4116,PAYLOAD,2023-09-01 16:37:53,15.08846268,0.000127,53.2186,334.145,90.2025,269.9112,0.00013933,1.931e-05,0.0,0 STARLINK-4116,1 53164U 22083AJ  23244.69298524  .00001931  00000-0  13933-3 0  9990,2 53164  53.2186 334.1450 0001270  90.2025 269.9112 15.08846268 63102,6917.861,95.437,540.605,538.848,0.0
53164.0,STARLINK-4116,PAYLOAD,2023-09-02 05:20:59,15.08839515,0.0001439,53.2177,331.7672,84.4717,275.6439,9.9854e-05,1.302e-05,0.0,0 STARLINK-4116,1 53164U 22083AJ  23245.22291149  .00001302  00000-0  99854-4 0  9995,2 53164  53.2177 331.7672 0001439  84.4717 275.6439 15.08839515 63182,6917.882,95.438,540.742,538.751,0.0
53164.0,STARLINK-4116,PAYLOAD,2023-09-02 13:17:55,15.08840297,0.0001361,53.2163,330.2806,92.8009,267.3139,8.446e-05,1.057e-05,0.0,0 STARLINK-4116,1 53164U 22083AJ  23245.55411081  .00001057  00000-0  84460-4 0  9994,2 53164  53.2163 330.2806 0001361  92.8009 267.3139 15.08840297 62601,6917.879,95.438,540.686,538.803,0.0
53164.0,STARLINK-4116,PAYLOAD,2023-09-02 14:53:18,15.08842391,0.0001407,53.2166,329.983,91.3498,268.7655,0.00010006,1.305e-05,0.0,0 STARLINK-4116,1 53164U 22083AJ  23245.62034924  .00001305  00000-0  10006-3 0  9999,2 53164  53.2166 329.9830 0001407  91.3498 268.7655 15.08842391 62619,6917.873,95.437,540.711,538.765,0.0
53164.0,STARLINK-4116,PAYLOAD,2023-09-02 22:50:13,15.08851588,0.0001304,53.2174,328.4968,93.4693,266.6448,6.1699e-05,6.94e-06,0.0,0 STARLINK-4116,1 53164U 22083AJ  23245.95154624  .00000694  00000-0  61699-4 0  9990,2 53164  53.2174 328.4968 0001304  93.4693 266.6448 15.08851588 63290,6917.845,95.437,540.612,538.808,0.0
53164.0,STARLINK-4116,PAYLOAD,2023-09-03 22:41:01,15.08820704,0.0001425,53.2173,324.0351,95.0793,265.0362,-0.00025863,-4.399e-05,0.0,0 STARLINK-4116,1 53164U 22083AJ  23246.94515533 -.00004399  00000-0 -25863-3 0  9990,2 53164  53.2173 324.0351 0001425  95.0793 265.0362 15.08820704 63441,6917.939,95.439,540.79,538.819,0.0
53164.0,STARLINK-4116,PAYLOAD,2023-09-04 11:24:06,15.08819807,9.7e-05,53.2173,321.6579,91.6532,268.4572,-0.00019897,-3.451e-05,0.0,0 STARLINK-4116,1 53164U 22083AJ  23247.47507963 -.00003451  00000-0 -19897-3 0  9995,2 53164  53.2173 321.6579 0000970  91.6532 268.4572 15.08819807 62893,6917.942,95.439,540.478,539.136,0.0
53164.0,STARLINK-4116,PAYLOAD,2023-09-04 14:34:52,15.08827239,0.0001333,53.2169,321.0615,94.585,265.5295,-0.00011998,-2.196e-05,0.0,0 STARLINK-4116,1 53164U 22083AJ  23247.60755730 -.00002196  00000-0 -11998-3 0  9996,2 53164  53.2169 321.0615 0001333  94.5850 265.5295 15.08827239 63543,6917.919,95.438,540.707,538.862,0.0
53164.0,STARLINK-4116,PAYLOAD,2023-09-04 22:31:48,15.08834331,0.0001313,53.2176,319.5743,97.8911,262.223,2.176e-05,5.8e-07,0.0,0 STARLINK-4116,1 53164U 22083AJ  23247.93875594  .00000058  00000-0  21760-4 0  9995,2 53164  53.2176 319.5743 0001313  97.8911 262.2230 15.08834331 63596,6917.898,95.438,540.671,538.854,0.0
53164.0,STARLINK-4116,PAYLOAD,2023-09-05 14:25:39,15.08845522,0.0001733,53.2175,316.5999,130.9146,229.1996,0.00019818,2.868e-05,0.0,0 STARLINK-4116,1 53164U 22083AJ  23248.60115163  .00002868  00000-0  19818-3 0  9990,2 53164  53.2175 316.5999 0001733 130.9146 229.1996 15.08845522 63696,6917.864,95.437,540.927,538.53,0.0
53164.0,STARLINK-4116,PAYLOAD,2023-09-06 15:51:49,15.08850401,0.0001267,53.2166,311.8434,96.9643,263.1493,0.00033418,5.036e-05,0.0,0 STARLINK-4116,1 53164U 22083AJ  23249.66099066  .00005036  00000-0  33418-3 0  9992,2 53164  53.2166 311.8434 0001267  96.9643 263.1493 15.08850401 63853,6917.849,95.437,540.59,538.837,0.0
53164.0,STARLINK-4116,PAYLOAD,2023-09-07 02:59:32,15.08850302,0.0003386,53.2134,309.7632,70.3019,289.8338,0.0002599,3.851e-05,0.0,0 STARLINK-4116,1 53164U 22083AJ  23250.12467779  .00003851  00000-0  25990-3 0  9994,2 53164  53.2134 309.7632 0003386  70.3019 289.8338 15.08850302 63922,6917.849,95.437,542.056,537.372,0.0
53164.0,STARLINK-4116,PAYLOAD,2023-09-07 07:45:41,15.08836431,0.0001373,53.2162,308.8696,99.1099,261.0049,-4.4416e-05,-9.95e-06,0.0,0 STARLINK-4116,1 53164U 22083AJ  23250.32339519 -.00000995  00000-0 -44416-4 0  9999,2 53164  53.2162 308.8696 0001373  99.1099 261.0049 15.08836431 63955,6917.891,95.438,540.706,538.806,0.0
53164.0,STARLINK-4116,PAYLOAD,2023-09-07 09:21:04,15.08836853,0.0001419,53.2169,308.5718,100.835,259.2802,-5.0354e-05,-1.089e-05,0.0,0 STARLINK-4116,1 53164U 22083AJ  23250.38963472 -.00001089  00000-0 -50354-4 0  9999,2 53164  53.2169 308.5718 0001419 100.8350 259.2802 15.08836853 63331,6917.89,95.438,540.737,538.773,0.0
53164.0,STARLINK-4116,PAYLOAD,2023-09-08 10:47:14,15.08839872,0.000141,53.2171,303.8151,91.1115,269.0039,0.00030837,4.623e-05,0.0,0 STARLINK-4116,1 53164U 22083AJ  23251.44947730  .00004623  00000-0  30837-3 0  9994,2 53164  53.2171 303.8151 0001410  91.1115 269.0039 15.08839872 64128,6917.881,95.438,540.721,538.77,0.0
53164.0,STARLINK-4116,PAYLOAD,2023-09-08 12:22:37,15.08841613,0.0001414,53.2171,303.518,88.5025,271.613,0.00033015,4.971e-05,0.0,0 STARLINK-4116,1 53164U 22083AJ  23251.51571725  .00004971  00000-0  33015-3 0  9996,2 53164  53.2171 303.5180 0001414  88.5025 271.6130 15.08841613 63509,6917.875,95.437,540.719,538.762,0.0
53164.0,STARLINK-4116,PAYLOAD,2023-09-08 20:19:33,15.08836318,0.0001342,53.217,302.0307,91.1838,268.9308,0.00017757,2.539e-05,0.0,0 STARLINK-4116,1 53164U 22083AJ  23251.84692031  .00002539  00000-0  17757-3 0  9999,2 53164  53.2170 302.0307 0001342  91.1838 268.9308 15.08836318 63552,6917.892,95.438,540.685,538.828,0.0
53164.0,STARLINK-4116,PAYLOAD,2023-09-09 02:41:06,15.08836101,0.0001427,53.2167,300.8421,88.1762,271.9393,0.0001175,1.582e-05,0.0,0 STARLINK-4116,1 53164U 22083AJ  23252.11188148  .00001582  00000-0  11750-3 0  9993,2 53164  53.2167 300.8421 0001427  88.1762 271.9393 15.08836101 64220,6917.892,95.438,540.744,538.77,0.0
53164.0,STARLINK-4116,PAYLOAD,2023-09-09 10:38:02,15.08840804,0.0001447,53.2166,299.3556,87.8832,272.2326,0.00021168,3.083e-05,0.0,0 STARLINK-4116,1 53164U 22083AJ  23252.44308126  .00003083  00000-0  21168-3 0  9991,2 53164  53.2166 299.3556 0001447  87.8832 272.2326 15.08840804 63646,6917.878,95.438,540.744,538.742,0.0
53164.0,STARLINK-4116,PAYLOAD,2023-09-10 10:28:49,15.08847273,0.0001492,53.2162,294.8952,84.5619,275.5543,0.00031834,4.783e-05,0.0,0 STARLINK-4116,1 53164U 22083AJ  23253.43668040  .00004783  00000-0  31834-3 0  9994,2 53164  53.2162 294.8952 0001492  84.5619 275.5543 15.08847273 64420,6917.858,95.437,540.755,538.691,0.0
53164.0,STARLINK-4116,PAYLOAD,2023-09-11 02:22:40,15.08843214,0.0001537,53.2159,291.9221,85.1737,274.9431,0.00020045,2.904e-05,0.0,0 STARLINK-4116,1 53164U 22083AJ  23254.09908196  .00002904  00000-0  20045-3 0  9991,2 53164  53.2159 291.9221 0001537  85.1737 274.9431 15.08843214 64522,6917.871,95.437,540.799,538.672,0.0
53164.0,STARLINK-4116,PAYLOAD,2023-09-11 10:19:36,15.0884192,0.0001522,53.2159,290.4353,86.2399,273.8767,0.00015901,2.244e-05,0.0,0 STARLINK-4116,1 53164U 22083AJ  23254.43028310  .00002244  00000-0  15901-3 0  9992,2 53164  53.2159 290.4353 0001522  86.2399 273.8767 15.08841920 63949,6917.875,95.437,540.792,538.687,0.0
53164.0,STARLINK-4116,PAYLOAD,2023-09-12 02:13:28,15.08838023,0.0001476,53.2158,287.4596,90.1228,269.9933,0.00024873,3.673e-05,0.0,0 STARLINK-4116,1 53164U 22083AJ  23255.09268643  .00003673  00000-0  24873-3 0  9995,2 53164  53.2158 287.4596 0001476  90.1228 269.9933 15.08838023 64678,6917.886,95.438,540.773,538.73,0.0
53164.0,STARLINK-4116,PAYLOAD,2023-09-12 10:10:23,15.08844763,0.0001497,53.2157,285.973,89.6005,270.5159,0.00012409,1.688e-05,0.0,0 STARLINK-4116,1 53164U 22083AJ  23255.42388218  .00001688  00000-0  12409-3 0  9999,2 53164  53.2157 285.9730 0001497  89.6005 270.5159 15.08844763 64091,6917.866,95.437,540.766,538.695,0.0
53164.0,STARLINK-4116,PAYLOAD,2023-09-13 08:25:46,15.08852082,0.0001492,53.2156,281.8093,90.2526,269.8637,0.00024792,3.661e-05,0.0,0 STARLINK-4116,1 53164U 22083AJ  23256.35123766  .00003661  00000-0  24792-3 0  9998,2 53164  53.2156 281.8093 0001492  90.2526 269.8637 15.08852082 64868,6917.843,95.437,540.741,538.676,0.0
53164.0,STARLINK-4116,PAYLOAD,2023-09-13 10:01:09,15.08852915,0.000149,53.2157,281.5118,90.8658,269.2505,0.00025285,3.74e-05,0.0,0 STARLINK-4116,1 53164U 22083AJ  23256.41747673  .00003740  00000-0  25285-3 0  9990,2 53164  53.2157 281.5118 0001490  90.8658 269.2505 15.08852915 64249,6917.841,95.437,540.737,538.675,0.0
53164.0,STARLINK-4116,PAYLOAD,2023-09-14 06:41:11,15.0883468,0.0001729,53.2165,277.6463,111.7366,248.381,-1.624e-05,-5.46e-06,0.0,0 STARLINK-4116,1 53164U 22083AJ  23257.27860772 -.00000546  00000-0 -16240-4 0  9996,2 53164  53.2165 277.6463 0001729 111.7366 248.3810 15.08834680 65002,6917.897,95.438,540.958,538.566,0.0
53164.0,STARLINK-4116,PAYLOAD,2023-09-14 11:27:21,15.08828396,0.0001504,53.216,276.7528,95.9195,264.1968,-0.00011561,-2.127e-05,0.0,0 STARLINK-4116,1 53164U 22083AJ  23257.47733228 -.00002127  00000-0 -11561-3 0  9990,2 53164  53.2160 276.7528 0001504  95.9195 264.1968 15.08828396 64403,6917.916,95.438,540.821,538.74,0.0
